{"type": "FeatureCollection", "features": [ {"type": "Feature", "properties": {"norad_id": 29769, "name": "FENGYUN 1C DEB", "group": "fengyun-1c-debris", "lat": -53.25093046970296, "lon": -134.9380902975884, "alt_km": 905.7473156716305, "timestamp": "2025-12-25T22:42:17.282400+00:00", "meta": {"OBJECT_NAME": "FENGYUN 1C DEB", "OBJECT_ID": "1999-025BK", "EPOCH": "2025-12-24T15:01:52.245696", "MEAN_MOTION": 14.13587224, "ECCENTRICITY": 0.00930986, "INCLINATION": 99.1044, "RA_OF_ASC_NODE": 56.1196, "ARG_OF_PERICENTER": 97.3136, "MEAN_ANOMALY": 263.8629, "EPHEMERIS_TYPE": 0, "CLASSIFICATION_TYPE": "U", "NORAD_CAT_ID": 29769, "ELEMENT_SET_NO": 999, "REV_AT_EPOCH": 96849, "BSTAR": 0.001192372, "MEAN_MOTION_DOT": 2.298e-05, "MEAN_MOTION_DDOT": 0}, "tle": {"line1": "1 29769U 99025BK  25358.62629914  .00002298  00000+0  11924-2 0  9999", "line2": "2 29769  99.1044  56.1196 0093098  97.3136 263.8629 14.13587224968497"}}, "geometry": {"type": "Point", "coordinates": [-134.9380902975884, -53.25093046970296]}}, {"type": "Feature", "properties": {"norad_id": 29770, "name": "FENGYUN 1C DEB", "group": "fengyun-1c-debris", "lat": -26.312969256104083, "lon": 79.93227549130266, "alt_km": 838.0050201785261, "timestamp": "2025-12-25T22:42:17.282411+00:00", "meta": {"OBJECT_NAME": "FENGYUN 1C DEB", "OBJECT_ID": "1999-025BL", "EPOCH": "2025-12-25T11:18:29.282400", "MEAN_MOTION": 14.20191602, "ECCENTRICITY": 0.0063964, "INCLINATION": 98.8455, "RA_OF_ASC_NODE": 75.0411, "ARG_OF_PERICENTER": 234.8575, "MEAN_ANOMALY": 191.4175, "EPHEMERIS_TYPE": 0, "CLASSIFICATION_TYPE": "U", "NORAD_CAT_ID": 29770, "ELEMENT_SET_NO": 999, "REV_AT_EPOCH": 97267, "BSTAR": 0.0015153, "MEAN_MOTION_DOT": 3.258e-05, "MEAN_MOTION_DDOT": 0}, "tle": {"line1": "1 29770U 99025BL  25359.47117225  .00003258  00000+0  15153-2 0  9997", "line2": "2 29770  98.8455  75.0411 0063964 234.8575 191.4175 14.20191602972671"}}, "geometry": {"type": "Point", "coordinates": [79.93227549130266, -26.312969256104083]}}, {"type": "Feature", "properties": {"norad_id": 29772, "name": "FENGYUN 1C DEB", "group": "fengyun-1c-debris", "lat": 12.962697555718735, "lon": 30.065559668507117, "alt_km": 876.3114809436856, "timestamp": "2025-12-25T22:42:17.282421+00:00", "meta": {"OBJECT_NAME": "FENGYUN 1C DEB", "OBJECT_ID": "1999-025BN", "EPOCH": "2025-12-24T13:39:37.897632", "MEAN_MOTION": 14.03249705, "ECCENTRICITY": 0.01369059, "INCLINATION": 98.3837, "RA_OF_ASC_NODE": 206.8509, "ARG_OF_PERICENTER": 257.2434, "MEAN_ANOMALY": 159.5842, "EPHEMERIS_TYPE": 0, "CLASSIFICATION_TYPE": "U", "NORAD_CAT_ID": 29772, "ELEMENT_SET_NO": 999, "REV_AT_EPOCH": 96421, "BSTAR": 0.00095382365, "MEAN_MOTION_DOT": 1.576e-05, "MEAN_MOTION_DDOT": 0}, "tle": {"line1": "1 29772U 99025BN  25358.56918863  .00001576  00000+0  95382-3 0  9999", "line2": "2 29772  98.3837 206.8509 0136905 257.2434 159.5842 14.03249705964219"}}, "geometry": {"type": "Point", "coordinates": [30.065559668507117, 12.962697555718735]}}, {"type": "Feature", "properties": {"norad_id": 29773, "name": "FENGYUN 1C DEB", "group": "fengyun-1c-debris", "lat": -65.73005848416821, "lon": 174.47238105823112, "alt_km": 781.587071518632, "timestamp": "2025-12-25T22:42:17.282431+00:00", "meta": {"OBJECT_NAME": "FENGYUN 1C DEB", "OBJECT_ID": "1999-025BP", "EPOCH": "2025-12-25T16:22:28.426944", "MEAN_MOTION": 14.27594494, "ECCENTRICITY": 0.0046539, "INCLINATION": 98.9879, "RA_OF_ASC_NODE": 153.6516, "ARG_OF_PERICENTER": 252.724, "MEAN_ANOMALY": 124.8259, "EPHEMERIS_TYPE": 0, "CLASSIFICATION_TYPE": "U", "NORAD_CAT_ID": 29773, "ELEMENT_SET_NO": 999, "REV_AT_EPOCH": 98382, "BSTAR": 0.00041047, "MEAN_MOTION_DOT": 9.75e-06, "MEAN_MOTION_DDOT": 0}, "tle": {"line1": "1 29773U 99025BP  25359.68227346  .00000975  00000+0  41047-3 0  9994", "line2": "2 29773  98.9879 153.6516 0046539 252.7240 124.8259 14.27594494983826"}}, "geometry": {"type": "Point", "coordinates": [174.47238105823112, -65.73005848416821]}}, {"type": "Feature", "properties": {"norad_id": 29774, "name": "FENGYUN 1C DEB", "group": "fengyun-1c-debris", "lat": 28.09773209799725, "lon": -64.2255012792383, "alt_km": 794.8106976691397, "timestamp": "2025-12-25T22:42:17.282441+00:00", "meta": {"OBJECT_NAME": "FENGYUN 1C DEB", "OBJECT_ID": "1999-025BQ", "EPOCH": "2025-12-24T19:49:25.836672", "MEAN_MOTION": 14.22741986, "ECCENTRICITY": 0.00513371, "INCLINATION": 99.0781, "RA_OF_ASC_NODE": 299.5177, "ARG_OF_PERICENTER": 89.2825, "MEAN_ANOMALY": 326.3014, "EPHEMERIS_TYPE": 0, "CLASSIFICATION_TYPE": "U", "NORAD_CAT_ID": 29774, "ELEMENT_SET_NO": 999, "REV_AT_EPOCH": 98247, "BSTAR": 0.0001799684, "MEAN_MOTION_DOT": 3.62e-06, "MEAN_MOTION_DDOT": 0}, "tle": {"line1": "1 29774U 99025BQ  25358.82599348  .00000362  00000+0  17997-3 0  9991", "line2": "2 29774  99.0781 299.5177 0051337  89.2825 326.3014 14.22741986982471"}}, "geometry": {"type": "Point", "coordinates": [-64.2255012792383, 28.09773209799725]}}, {"type": "Feature", "properties": {"norad_id": 29776, "name": "FENGYUN 1C DEB", "group": "fengyun-1c-debris", "lat": -72.16260956825214, "lon": 54.98618037142773, "alt_km": 864.2376412711601, "timestamp": "2025-12-25T22:42:17.282451+00:00", "meta": {"OBJECT_NAME": "FENGYUN 1C DEB", "OBJECT_ID": "1999-025BS", "EPOCH": "2025-12-25T15:07:06.892896", "MEAN_MOTION": 14.07782071, "ECCENTRICITY": 0.0023057, "INCLINATION": 98.77, "RA_OF_ASC_NODE": 26.0116, "ARG_OF_PERICENTER": 233.1905, "MEAN_ANOMALY": 251.1524, "EPHEMERIS_TYPE": 0, "CLASSIFICATION_TYPE": "U", "NORAD_CAT_ID": 29776, "ELEMENT_SET_NO": 999, "REV_AT_EPOCH": 97261, "BSTAR": 9.7865e-05, "MEAN_MOTION_DOT": 1.23e-06, "MEAN_MOTION_DDOT": 0}, "tle": {"line1": "1 29776U 99025BS  25359.62994089  .00000123  00000+0  97865-4 0  9991", "line2": "2 29776  98.7700  26.0116 0023057 233.1905 251.1524 14.07782071972612"}}, "geometry": {"type": "Point", "coordinates": [54.98618037142773, -72.16260956825214]}}, {"type": "Feature", "properties": {"norad_id": 29777, "name": "FENGYUN 1C DEB", "group": "fengyun-1c-debris", "lat": -50.72882113662771, "lon": 68.3610176255002, "alt_km": 975.3756947959928, "timestamp": "2025-12-25T22:42:17.282462+00:00", "meta": {"OBJECT_NAME": "FENGYUN 1C DEB", "OBJECT_ID": "1999-025BT", "EPOCH": "2025-12-25T18:21:02.533824", "MEAN_MOTION": 13.92109931, "ECCENTRICITY": 0.0093244, "INCLINATION": 99.2817, "RA_OF_ASC_NODE": 56.6425, "ARG_OF_PERICENTER": 174.5216, "MEAN_ANOMALY": 304.4022, "EPHEMERIS_TYPE": 0, "CLASSIFICATION_TYPE": "U", "NORAD_CAT_ID": 29777, "ELEMENT_SET_NO": 999, "REV_AT_EPOCH": 96222, "BSTAR": 0.00022624, "MEAN_MOTION_DOT": 2.55e-06, "MEAN_MOTION_DDOT": 0}, "tle": {"line1": "1 29777U 99025BT  25359.76461266  .00000255  00000+0  22624-3 0  9999", "line2": "2 29777  99.2817  56.6425 0093244 174.5216 304.4022 13.92109931962220"}}, "geometry": {"type": "Point", "coordinates": [68.3610176255002, -50.72882113662771]}}, {"type": "Feature", "properties": {"norad_id": 29779, "name": "FENGYUN 1C DEB", "group": "fengyun-1c-debris", "lat": -20.91711297808506, "lon": -172.55948271651815, "alt_km": 839.9116062914491, "timestamp": "2025-12-25T22:42:17.282472+00:00", "meta": {"OBJECT_NAME": "FENGYUN 1C DEB", "OBJECT_ID": "1999-025BV", "EPOCH": "2025-12-25T13:16:04.738368", "MEAN_MOTION": 14.1345393, "ECCENTRICITY": 0.0064012, "INCLINATION": 98.6769, "RA_OF_ASC_NODE": 10.4051, "ARG_OF_PERICENTER": 127.958, "MEAN_ANOMALY": 232.74, "EPHEMERIS_TYPE": 0, "CLASSIFICATION_TYPE": "U", "NORAD_CAT_ID": 29779, "ELEMENT_SET_NO": 999, "REV_AT_EPOCH": 97593, "BSTAR": 0.00022418, "MEAN_MOTION_DOT": 3.88e-06, "MEAN_MOTION_DDOT": 0}, "tle": {"line1": "1 29779U 99025BV  25359.55283262  .00000388  00000+0  22418-3 0  9994", "line2": "2 29779  98.6769  10.4051 0064012 127.9580 232.7400 14.13453930975931"}}, "geometry": {"type": "Point", "coordinates": [-172.55948271651815, -20.91711297808506]}}, {"type": "Feature", "properties": {"norad_id": 29780, "name": "FENGYUN 1C DEB", "group": "fengyun-1c-debris", "lat": -30.183836870547513, "lon": -73.01126414610529, "alt_km": 842.7133793861722, "timestamp": "2025-12-25T22:42:17.282482+00:00", "meta": {"OBJECT_NAME": "FENGYUN 1C DEB", "OBJECT_ID": "1999-025BW", "EPOCH": "2025-12-25T17:46:46.992288", "MEAN_MOTION": 14.21129539, "ECCENTRICITY": 0.0041959, "INCLINATION": 99.2782, "RA_OF_ASC_NODE": 281.3174, "ARG_OF_PERICENTER": 90.6814, "MEAN_ANOMALY": 269.9169, "EPHEMERIS_TYPE": 0, "CLASSIFICATION_TYPE": "U", "NORAD_CAT_ID": 29780, "ELEMENT_SET_NO": 999, "REV_AT_EPOCH": 97263, "BSTAR": 0.0018015, "MEAN_MOTION_DOT": 3.904e-05, "MEAN_MOTION_DDOT": 0}, "tle": {"line1": "1 29780U 99025BW  25359.74082167  .00003904  00000+0  18015-2 0  9992", "line2": "2 29780  99.2782 281.3174 0041959  90.6814 269.9169 14.21129539972633"}}, "geometry": {"type": "Point", "coordinates": [-73.01126414610529, -30.183836870547513]}}, {"type": "Feature", "properties": {"norad_id": 29781, "name": "FENGYUN 1C DEB", "group": "fengyun-1c-debris", "lat": -67.0408397462345, "lon": 152.24891179122514, "alt_km": 902.6406825465874, "timestamp": "2025-12-25T22:42:17.282492+00:00", "meta": {"OBJECT_NAME": "FENGYUN 1C DEB", "OBJECT_ID": "1999-025BX", "EPOCH": "2025-12-25T13:35:34.685088", "MEAN_MOTION": 14.05256875, "ECCENTRICITY": 0.0072395, "INCLINATION": 98.8107, "RA_OF_ASC_NODE": 353.356, "ARG_OF_PERICENTER": 137.2244, "MEAN_ANOMALY": 351.071, "EPHEMERIS_TYPE": 0, "CLASSIFICATION_TYPE": "U", "NORAD_CAT_ID": 29781, "ELEMENT_SET_NO": 999, "REV_AT_EPOCH": 96823, "BSTAR": 0.00061135, "MEAN_MOTION_DOT": 9.7e-06, "MEAN_MOTION_DDOT": 0}, "tle": {"line1": "1 29781U 99025BX  25359.56637367  .00000970  00000+0  61135-3 0  9993", "line2": "2 29781  98.8107 353.3560 0072395 137.2244 351.0710 14.05256875968234"}}, "geometry": {"type": "Point", "coordinates": [152.24891179122514, -67.0408397462345]}}]}